[
    {
        "Altitude(m)": 707306.2280124789,
        "Argument of Periapsis(deg)": 0.006834072711976239,
        "Eccentricity": 0.0,
        "Inclination(deg)": 45.0,
        "Latitude(deg)": 45.14057899221621,
        "Longitude(deg)": 172.77175835512014,
        "Mean Anomaly(deg)": 88.73812998848852,
        "RAAN(deg)": 184.9935488351251,
        "Satellite Name": "Constellation 1 819",
        "Satellite Number": 819,
        "Semi-Major Axis(m)": 7083131.272910544,
        "Time(s)": 114
    },
    {
        "Altitude(m)": 707306.5303694792,
        "Argument of Periapsis(deg)": 0.006894020718221645,
        "Eccentricity": 0.0,
        "Inclination(deg)": 45.0,
        "Latitude(deg)": 45.141879770573155,
        "Longitude(deg)": 172.85350421280626,
        "Mean Anomaly(deg)": 88.7988311287384,
        "RAAN(deg)": 184.9934922459595,
        "Satellite Name": "Constellation 1 819",
        "Satellite Number": 819,
        "Semi-Major Axis(m)": 7083131.272910544,
        "Time(s)": 115
    },
    {
        "Altitude(m)": 707306.8181039899,
        "Argument of Periapsis(deg)": 0.006953968724467052,
        "Eccentricity": 0.0,
        "Inclination(deg)": 45.0,
        "Latitude(deg)": 45.14311603382544,
        "Longitude(deg)": 172.9352538754926,
        "Mean Anomaly(deg)": 88.85953226898826,
        "RAAN(deg)": 184.99343565679393,
        "Satellite Name": "Constellation 1 819",
        "Satellite Number": 819,
        "Semi-Major Axis(m)": 7083131.272910544,
        "Time(s)": 116
    },
    {
        "Altitude(m)": 707307.0912143529,
        "Argument of Periapsis(deg)": 0.007013916730712457,
        "Eccentricity": 0.0,
        "Inclination(deg)": 45.0,
        "Latitude(deg)": 45.14428777645271,
        "Longitude(deg)": 173.01700714995752,
        "Mean Anomaly(deg)": 88.9202334092382,
        "RAAN(deg)": 184.99337906762835,
        "Satellite Name": "Constellation 1 819",
        "Satellite Number": 819,
        "Semi-Major Axis(m)": 7083131.272910544,
        "Time(s)": 117
    },
    {
        "Altitude(m)": 707307.349699017,
        "Argument of Periapsis(deg)": 0.007073864736957864,
        "Eccentricity": 0.0,
        "Inclination(deg)": 45.0,
        "Latitude(deg)": 45.14539499322214,
        "Longitude(deg)": 173.09876384291385,
        "Mean Anomaly(deg)": 88.98093454948808,
        "RAAN(deg)": 184.9933224784628,
        "Satellite Name": "Constellation 1 819",
        "Satellite Number": 819,
        "Semi-Major Axis(m)": 7083131.272910544,
        "Time(s)": 118
    },
    {
        "Altitude(m)": 707307.593556504,
        "Argument of Periapsis(deg)": 0.0071338127432032696,
        "Eccentricity": 0.0,
        "Inclination(deg)": 45.0,
        "Latitude(deg)": 45.14643767918888,
        "Longitude(deg)": 173.18052359291644,
        "Mean Anomaly(deg)": 89.041635689738,
        "RAAN(deg)": 184.9932658892972,
        "Satellite Name": "Constellation 1 819",
        "Satellite Number": 819,
        "Semi-Major Axis(m)": 7083131.272910544,
        "Time(s)": 119
    },
    {
        "Altitude(m)": 707307.8227854208,
        "Argument of Periapsis(deg)": 0.007193760749448674,
        "Eccentricity": 0.0,
        "Inclination(deg)": 45.0,
        "Latitude(deg)": 45.14741582969497,
        "Longitude(deg)": 173.26228654275275,
        "Mean Anomaly(deg)": 89.10233682998788,
        "RAAN(deg)": 184.99320930013164,
        "Satellite Name": "Constellation 1 819",
        "Satellite Number": 819,
        "Semi-Major Axis(m)": 7083131.272910544,
        "Time(s)": 120
    },
    {
        "Altitude(m)": 707308.0373844694,
        "Argument of Periapsis(deg)": 0.007253708755694079,
        "Eccentricity": 0.0,
        "Inclination(deg)": 45.0,
        "Latitude(deg)": 45.14832944037133,
        "Longitude(deg)": 173.34405233086483,
        "Mean Anomaly(deg)": 89.16303797023782,
        "RAAN(deg)": 184.9931527109661,
        "Satellite Name": "Constellation 1 819",
        "Satellite Number": 819,
        "Semi-Major Axis(m)": 7083131.272910544,
        "Time(s)": 121
    },
    {
        "Altitude(m)": 707308.2373524267,
        "Argument of Periapsis(deg)": 0.0073136567619394854,
        "Eccentricity": 0.0,
        "Inclination(deg)": 45.0,
        "Latitude(deg)": 45.14917850713646,
        "Longitude(deg)": 173.4258207637403,
        "Mean Anomaly(deg)": 89.22373911048774,
        "RAAN(deg)": 184.9930961218005,
        "Satellite Name": "Constellation 1 819",
        "Satellite Number": 819,
        "Semi-Major Axis(m)": 7083131.272910544,
        "Time(s)": 122
    },
    {
        "Altitude(m)": 707308.4226881631,
        "Argument of Periapsis(deg)": 0.0073736047681848904,
        "Eccentricity": 0.0,
        "Inclination(deg)": 45.0,
        "Latitude(deg)": 45.14996302619708,
        "Longitude(deg)": 173.5075916478193,
        "Mean Anomaly(deg)": 89.28444025073757,
        "RAAN(deg)": 184.99303953263495,
        "Satellite Name": "Constellation 1 819",
        "Satellite Number": 819,
        "Semi-Major Axis(m)": 7083131.272910544,
        "Time(s)": 123
    },
    {
        "Altitude(m)": 707308.593390624,
        "Argument of Periapsis(deg)": 0.007433552774430298,
        "Eccentricity": 0.0,
        "Inclination(deg)": 45.0,
        "Latitude(deg)": 45.15068299404789,
        "Longitude(deg)": 173.589364789498,
        "Mean Anomaly(deg)": 89.34514139098748,
        "RAAN(deg)": 184.99298294346934,
        "Satellite Name": "Constellation 1 819",
        "Satellite Number": 819,
        "Semi-Major Axis(m)": 7083131.272910544,
        "Time(s)": 124
    },
    {
        "Altitude(m)": 707308.7494588573,
        "Argument of Periapsis(deg)": 0.007493500780675703,
        "Eccentricity": 0.0,
        "Inclination(deg)": 45.0,
        "Latitude(deg)": 45.151338407471926,
        "Longitude(deg)": 173.6711399951318,
        "Mean Anomaly(deg)": 89.40584253123741,
        "RAAN(deg)": 184.9929263543038,
        "Satellite Name": "Constellation 1 819",
        "Satellite Number": 819,
        "Semi-Major Axis(m)": 7083131.272910544,
        "Time(s)": 125
    },
    {
        "Altitude(m)": 707308.8908919798,
        "Argument of Periapsis(deg)": 0.007553448786921108,
        "Eccentricity": 0.0,
        "Inclination(deg)": 45.0,
        "Latitude(deg)": 45.15192926354084,
        "Longitude(deg)": 173.7529169029415,
        "Mean Anomaly(deg)": 89.46654367148732,
        "RAAN(deg)": 184.99286976513824,
        "Satellite Name": "Constellation 1 819",
        "Satellite Number": 819,
        "Semi-Major Axis(m)": 7083131.272910544,
        "Time(s)": 126
    },
    {
        "Altitude(m)": 707309.0176892028,
        "Argument of Periapsis(deg)": 0.007613396793166514,
        "Eccentricity": 0.0,
        "Inclination(deg)": 45.0,
        "Latitude(deg)": 45.152455559613735,
        "Longitude(deg)": 173.83469565540577,
        "Mean Anomaly(deg)": 89.52724481173718,
        "RAAN(deg)": 184.99281317597266,
        "Satellite Name": "Constellation 1 819",
        "Satellite Number": 819,
        "Semi-Major Axis(m)": 7083131.272910544,
        "Time(s)": 127
    },
    {
        "Altitude(m)": 707309.1298498211,
        "Argument of Periapsis(deg)": 0.007673344799411918,
        "Eccentricity": 0.0,
        "Inclination(deg)": 45.0,
        "Latitude(deg)": 45.15291729333899,
        "Longitude(deg)": 173.9164758906818,
        "Mean Anomaly(deg)": 89.58794595198711,
        "RAAN(deg)": 184.9927565868071,
        "Satellite Name": "Constellation 1 819",
        "Satellite Number": 819,
        "Semi-Major Axis(m)": 7083131.272910544,
        "Time(s)": 128
    },
    {
        "Altitude(m)": 707309.2273732111,
        "Argument of Periapsis(deg)": 0.007733292805657325,
        "Eccentricity": 0.0,
        "Inclination(deg)": 45.0,
        "Latitude(deg)": 45.153314462653206,
        "Longitude(deg)": 173.9982574149971,
        "Mean Anomaly(deg)": 89.648647092237,
        "RAAN(deg)": 184.99269999764155,
        "Satellite Name": "Constellation 1 819",
        "Satellite Number": 819,
        "Semi-Major Axis(m)": 7083131.272910544,
        "Time(s)": 129
    },
    {
        "Altitude(m)": 707309.3102588421,
        "Argument of Periapsis(deg)": 0.00779324081190273,
        "Eccentricity": 0.0,
        "Inclination(deg)": 45.0,
        "Latitude(deg)": 45.15364706578153,
        "Longitude(deg)": 174.08004003455594,
        "Mean Anomaly(deg)": 89.7093482324869,
        "RAAN(deg)": 184.99264340847594,
        "Satellite Name": "Constellation 1 819",
        "Satellite Number": 819,
        "Semi-Major Axis(m)": 7083131.272910544,
        "Time(s)": 130
    },
    {
        "Altitude(m)": 707309.3785062641,
        "Argument of Periapsis(deg)": 0.007853188818148135,
        "Eccentricity": 0.0,
        "Inclination(deg)": 45.0,
        "Latitude(deg)": 45.15391510123756,
        "Longitude(deg)": 174.1618235555427,
        "Mean Anomaly(deg)": 89.77004937273679,
        "RAAN(deg)": 184.9925868193104,
        "Satellite Name": "Constellation 1 819",
        "Satellite Number": 819,
        "Semi-Major Axis(m)": 7083131.272910544,
        "Time(s)": 131
    },
    {
        "Altitude(m)": 707309.4321151107,
        "Argument of Periapsis(deg)": 0.007913136824393542,
        "Eccentricity": 0.0,
        "Inclination(deg)": 45.0,
        "Latitude(deg)": 45.15411856782356,
        "Longitude(deg)": 174.24360778412566,
        "Mean Anomaly(deg)": 89.8307505129867,
        "RAAN(deg)": 184.9925302301448,
        "Satellite Name": "Constellation 1 819",
        "Satellite Number": 819,
        "Semi-Major Axis(m)": 7083131.272910544,
        "Time(s)": 132
    }
]